start=new Date('2022-10-26T00:00:00.000Z').valueOf();
sats=[{"RCS_SIZE":"LARGE","BSTAR":"0.00001291200000","APOAPSIS":"541.421","REF_FRAME":"TEME","GP_ID":"216154779","PERIAPSIS":"538.077","MEAN_MOTION_DDOT":"0.0000000000000","OBJECT_TYPE":"PAYLOAD","EPHEMERIS_TYPE":"0","ECCENTRICITY":"0.00024170","TLE_LINE1":"1 50826U 22001Z   22298.71930812 -.00000083  00000-0  12912-4 0  9991","SITE":"AFETR","CENTER_NAME":"EARTH","MEAN_MOTION":"15.08838782","NORAD_CAT_ID":"50826","LAUNCH_DATE":"2022-01-06","SEMIMAJOR_AXIS":"6917.884","RA_OF_ASC_NODE":"295.1531","COUNTRY_CODE":"US","OBJECT_NAME":"STARLINK-3337","DECAY_DATE":null,"CLASSIFICATION_TYPE":"U","REV_AT_EPOCH":"4457","EPOCH":"2022-10-25T17:15:48.221568","FILE":"3633327","MEAN_ELEMENT_THEORY":"SGP4","OBJECT_ID":"2022-001Z","MEAN_MOTION_DOT":"-0.00000083","ELEMENT_SET_NO":"999","TIME_SYSTEM":"UTC","ARG_OF_PERICENTER":"37.6450","TLE_LINE2":"2 50826  53.2182 295.1531 0002417  37.6450 322.4711 15.08838782 44579","PERIOD":"95.438","INCLINATION":"53.2182","MEAN_ANOMALY":"322.4711"},{"TLE_LINE1":"1 50827U 22001AA  22298.42122049 -.00001570  00000-0 -80515-4 0  9992","SITE":"AFETR","CENTER_NAME":"EARTH","MEAN_MOTION":"15.08838598","NORAD_CAT_ID":"50827","LAUNCH_DATE":"2022-01-06","RA_OF_ASC_NODE":"296.5101","COUNTRY_CODE":"US","SEMIMAJOR_AXIS":"6917.885","BSTAR":"-0.00008051500000","RCS_SIZE":"LARGE","PERIAPSIS":"538.067","APOAPSIS":"541.433","GP_ID":"216124075","REF_FRAME":"TEME","OBJECT_TYPE":"PAYLOAD","EPHEMERIS_TYPE":"0","ECCENTRICITY":"0.00024330","MEAN_MOTION_DDOT":"0.0000000000000","MEAN_MOTION_DOT":"-0.00001570","ELEMENT_SET_NO":"999","TIME_SYSTEM":"UTC","ARG_OF_PERICENTER":"34.9791","MEAN_ANOMALY":"325.1360","INCLINATION":"53.2150","TLE_LINE2":"2 50827  53.2150 296.5101 0002433  34.9791 325.1360 15.08838598 44529","PERIOD":"95.438","CLASSIFICATION_TYPE":"U","OBJECT_NAME":"STARLINK-3329","DECAY_DATE":null,"EPOCH":"2022-10-25T10:06:33.450336","REV_AT_EPOCH":"4452","MEAN_ELEMENT_THEORY":"SGP4","FILE":"3633075","OBJECT_ID":"2022-001AA"},{"CLASSIFICATION_TYPE":"U","DECAY_DATE":null,"OBJECT_NAME":"STARLINK-3290","EPOCH":"2022-10-25T11:38:01.848768","REV_AT_EPOCH":"4438","MEAN_ELEMENT_THEORY":"SGP4","FILE":"3633075","OBJECT_ID":"2022-001AB","MEAN_MOTION_DOT":"-0.00000771","ELEMENT_SET_NO":"999","TIME_SYSTEM":"UTC","ARG_OF_PERICENTER":"31.8271","MEAN_ANOMALY":"328.2885","INCLINATION":"53.2159","TLE_LINE2":"2 50828  53.2159 296.2246 0002717  31.8271 328.2885 15.08832400 44386","PERIOD":"95.438","BSTAR":"-0.00003032000000","RCS_SIZE":"LARGE","PERIAPSIS":"537.889","APOAPSIS":"541.648","REF_FRAME":"TEME","GP_ID":"216124325","OBJECT_TYPE":"PAYLOAD","EPHEMERIS_TYPE":"0","ECCENTRICITY":"0.00027170","MEAN_MOTION_DDOT":"0.0000000000000","TLE_LINE1":"1 50828U 22001AB  22298.48474362 -.00000771  00000-0 -30320-4 0  9998","SITE":"AFETR","MEAN_MOTION":"15.08832400","CENTER_NAME":"EARTH","NORAD_CAT_ID":"50828","LAUNCH_DATE":"2022-01-06","RA_OF_ASC_NODE":"296.2246","COUNTRY_CODE":"US","SEMIMAJOR_AXIS":"6917.904"},{"MEAN_MOTION_DOT":"-0.00001632","ELEMENT_SET_NO":"999","TIME_SYSTEM":"UTC","ARG_OF_PERICENTER":"34.7861","TLE_LINE2":"2 50829  53.2181 295.2872 0002391  34.7861 325.3288 15.08826597 44566","PERIOD":"95.438","INCLINATION":"53.2181","MEAN_ANOMALY":"325.3288","OBJECT_NAME":"STARLINK-3294","DECAY_DATE":null,"CLASSIFICATION_TYPE":"U","REV_AT_EPOCH":"4456","EPOCH":"2022-10-25T16:38:43.512288","FILE":"3633327","MEAN_ELEMENT_THEORY":"SGP4","OBJECT_ID":"2022-001AC","TLE_LINE1":"1 50829U 22001AC  22298.69355917 -.00001632  00000-0 -84488-4 0  9997","SITE":"AFETR","CENTER_NAME":"EARTH","MEAN_MOTION":"15.08826597","NORAD_CAT_ID":"50829","LAUNCH_DATE":"2022-01-06","SEMIMAJOR_AXIS":"6917.921","RA_OF_ASC_NODE":"295.2872","COUNTRY_CODE":"US","BSTAR":"-0.00008448800000","RCS_SIZE":"LARGE","APOAPSIS":"541.440","REF_FRAME":"TEME","GP_ID":"216156012","PERIAPSIS":"538.132","MEAN_MOTION_DDOT":"0.0000000000000","OBJECT_TYPE":"PAYLOAD","EPHEMERIS_TYPE":"0","ECCENTRICITY":"0.00023910"},{"ECCENTRICITY":"0.00025400","EPHEMERIS_TYPE":"0","OBJECT_TYPE":"PAYLOAD","MEAN_MOTION_DDOT":"0.0000000000000","BSTAR":"-0.00008279900000","RCS_SIZE":"LARGE","PERIAPSIS":"538.023","GP_ID":"216131546","REF_FRAME":"TEME","APOAPSIS":"541.538","COUNTRY_CODE":"US","RA_OF_ASC_NODE":"306.9966","SEMIMAJOR_AXIS":"6917.916","MEAN_MOTION":"15.08828491","CENTER_NAME":"EARTH","TLE_LINE1":"1 50830U 22001AD  22298.31359156 -.00001606  00000-0 -82799-4 0  9991","SITE":"AFETR","LAUNCH_DATE":"2022-01-06","NORAD_CAT_ID":"50830","MEAN_ELEMENT_THEORY":"SGP4","FILE":"3633269","OBJECT_ID":"2022-001AD","CLASSIFICATION_TYPE":"U","DECAY_DATE":null,"OBJECT_NAME":"STARLINK-3278","EPOCH":"2022-10-25T07:31:34.310784","REV_AT_EPOCH":"4564","ARG_OF_PERICENTER":"34.1978","INCLINATION":"53.2149","MEAN_ANOMALY":"325.9178","PERIOD":"95.438","TLE_LINE2":"2 50830  53.2149 306.9966 0002540  34.1978 325.9178 15.08828491 45644","MEAN_MOTION_DOT":"-0.00001606","TIME_SYSTEM":"UTC","ELEMENT_SET_NO":"999"},{"REV_AT_EPOCH":"4457","EPOCH":"2022-10-25T17:11:53.061504","DECAY_DATE":null,"OBJECT_NAME":"STARLINK-3299","CLASSIFICATION_TYPE":"U","OBJECT_ID":"2022-001AE","FILE":"3633327","MEAN_ELEMENT_THEORY":"SGP4","ELEMENT_SET_NO":"999","TIME_SYSTEM":"UTC","MEAN_MOTION_DOT":"-0.00000076","TLE_LINE2":"2 50831  53.2187 295.1761 0002457  30.6623 329.4512 15.08837840 44574","PERIOD":"95.438","MEAN_ANOMALY":"329.4512","INCLINATION":"53.2187","ARG_OF_PERICENTER":"30.6623","APOAPSIS":"541.452","REF_FRAME":"TEME","GP_ID":"216155030","PERIAPSIS":"538.052","RCS_SIZE":"LARGE","BSTAR":"0.00001334200000","MEAN_MOTION_DDOT":"0.0000000000000","OBJECT_TYPE":"PAYLOAD","EPHEMERIS_TYPE":"0","ECCENTRICITY":"0.00024570","NORAD_CAT_ID":"50831","LAUNCH_DATE":"2022-01-06","SITE":"AFETR","TLE_LINE1":"1 50831U 22001AE  22298.71658636 -.00000076  00000-0  13342-4 0  9998","MEAN_MOTION":"15.08837840","CENTER_NAME":"EARTH","SEMIMAJOR_AXIS":"6917.887","RA_OF_ASC_NODE":"295.1761","COUNTRY_CODE":"US"},{"SEMIMAJOR_AXIS":"6917.906","RA_OF_ASC_NODE":"306.4140","COUNTRY_CODE":"US","NORAD_CAT_ID":"50832","LAUNCH_DATE":"2022-01-06","SITE":"AFETR","TLE_LINE1":"1 50832U 22001AF  22298.44239296 -.00002151  00000-0 -11710-3 0  9999","MEAN_MOTION":"15.08831727","CENTER_NAME":"EARTH","MEAN_MOTION_DDOT":"0.0000000000000","OBJECT_TYPE":"PAYLOAD","EPHEMERIS_TYPE":"0","ECCENTRICITY":"0.00019150","APOAPSIS":"541.095","REF_FRAME":"TEME","GP_ID":"216123825","PERIAPSIS":"538.446","RCS_SIZE":"LARGE","BSTAR":"-0.00011710000000","TLE_LINE2":"2 50832  53.2173 306.4140 0001915  48.4881 311.6275 15.08831727 44395","PERIOD":"95.438","INCLINATION":"53.2173","MEAN_ANOMALY":"311.6275","ARG_OF_PERICENTER":"48.4881","ELEMENT_SET_NO":"999","TIME_SYSTEM":"UTC","MEAN_MOTION_DOT":"-0.00002151","OBJECT_ID":"2022-001AF","FILE":"3633075","MEAN_ELEMENT_THEORY":"SGP4","REV_AT_EPOCH":"4439","EPOCH":"2022-10-25T10:37:02.751744","DECAY_DATE":null,"OBJECT_NAME":"STARLINK-3328","CLASSIFICATION_TYPE":"U"},{"SEMIMAJOR_AXIS":"6917.919","RA_OF_ASC_NODE":"296.6335","COUNTRY_CODE":"US","NORAD_CAT_ID":"50833","LAUNCH_DATE":"2022-01-06","SITE":"AFETR","TLE_LINE1":"1 50833U 22001AG  22298.39179960 -.00001223  00000-0 -58783-4 0  9996","MEAN_MOTION":"15.08827373","CENTER_NAME":"EARTH","MEAN_MOTION_DDOT":"0.0000000000000","OBJECT_TYPE":"PAYLOAD","EPHEMERIS_TYPE":"0","ECCENTRICITY":"0.00014770","APOAPSIS":"540.806","REF_FRAME":"TEME","GP_ID":"216125077","PERIAPSIS":"538.762","RCS_SIZE":"LARGE","BSTAR":"-0.00005878300000","TLE_LINE2":"2 50833  53.2192 296.6335 0001477  73.6190 286.4964 15.08827373 44520","PERIOD":"95.438","INCLINATION":"53.2192","MEAN_ANOMALY":"286.4964","ARG_OF_PERICENTER":"73.6190","ELEMENT_SET_NO":"999","TIME_SYSTEM":"UTC","MEAN_MOTION_DOT":"-0.00001223","OBJECT_ID":"2022-001AG","FILE":"3633075","MEAN_ELEMENT_THEORY":"SGP4","REV_AT_EPOCH":"4452","EPOCH":"2022-10-25T09:24:11.485440","OBJECT_NAME":"STARLINK-3316","DECAY_DATE":null,"CLASSIFICATION_TYPE":"U"},{"ARG_OF_PERICENTER":"31.8992","MEAN_ANOMALY":"328.2158","INCLINATION":"53.2167","TLE_LINE2":"2 50834  53.2167 304.9741 0002605  31.8992 328.2158 15.08840358 44435","PERIOD":"95.438","MEAN_MOTION_DOT":"0.00000465","ELEMENT_SET_NO":"999","TIME_SYSTEM":"UTC","MEAN_ELEMENT_THEORY":"SGP4","FILE":"3633327","OBJECT_ID":"2022-001AH","CLASSIFICATION_TYPE":"U","OBJECT_NAME":"STARLINK-3331","DECAY_DATE":null,"EPOCH":"2022-10-25T18:18:03.780864","REV_AT_EPOCH":"4443","RA_OF_ASC_NODE":"304.9741","COUNTRY_CODE":"US","SEMIMAJOR_AXIS":"6917.879","TLE_LINE1":"1 50834U 22001AH  22298.76254376  .00000465  00000-0  47335-4 0  9999","SITE":"AFETR","CENTER_NAME":"EARTH","MEAN_MOTION":"15.08840358","NORAD_CAT_ID":"50834","LAUNCH_DATE":"2022-01-06","OBJECT_TYPE":"PAYLOAD","EPHEMERIS_TYPE":"0","ECCENTRICITY":"0.00026050","MEAN_MOTION_DDOT":"0.0000000000000","RCS_SIZE":"LARGE","BSTAR":"0.00004733500000","PERIAPSIS":"537.942","APOAPSIS":"541.546","REF_FRAME":"TEME","GP_ID":"216154780"},{"MEAN_MOTION_DOT":"-0.00001650","TIME_SYSTEM":"UTC","ELEMENT_SET_NO":"999","ARG_OF_PERICENTER":"37.0361","PERIOD":"95.438","TLE_LINE2":"2 50835  53.2176 306.4855 0002673  37.0361 323.0815 15.08837186 44384","MEAN_ANOMALY":"323.0815","INCLINATION":"53.2176","OBJECT_NAME":"STARLINK-3310","DECAY_DATE":null,"CLASSIFICATION_TYPE":"U","REV_AT_EPOCH":"4438","EPOCH":"2022-10-25T10:10:32.931264","FILE":"3633075","MEAN_ELEMENT_THEORY":"SGP4","OBJECT_ID":"2022-001AJ","CENTER_NAME":"EARTH","MEAN_MOTION":"15.08837186","SITE":"AFETR","TLE_LINE1":"1 50835U 22001AJ  22298.42399226 -.00001650  00000-0 -85588-4 0  9998","LAUNCH_DATE":"2022-01-06","NORAD_CAT_ID":"50835","SEMIMAJOR_AXIS":"6917.889","COUNTRY_CODE":"US","RA_OF_ASC_NODE":"306.4855","BSTAR":"-0.00008558800000","RCS_SIZE":"LARGE","REF_FRAME":"TEME","GP_ID":"216124076","APOAPSIS":"541.603","PERIAPSIS":"537.905","MEAN_MOTION_DDOT":"0.0000000000000","ECCENTRICITY":"0.00026730","OBJECT_TYPE":"PAYLOAD","EPHEMERIS_TYPE":"0"}];
